HODOYOSHI-4             
1 40011U 14033B   26159.83074093  .00001053  00000+0  11963-3 0  9995
2 40011  97.5459 345.0572 0023246 337.2736  22.7450 14.88109976647562
DEIMOS-2                
1 40013U 14033D   26159.80955493  .00002281  00000+0  22071-3 0  9992
2 40013  97.5838  34.5922 0002063  60.1798 299.9627 14.93706728636474
HODOYOSHI-3             
1 40015U 14033F   26159.42768854  .00001152  00000+0  13864-3 0  9991
2 40015  97.6412 322.8215 0033464  25.9244 334.3640 14.85370955646321
SPOT 7                  
1 40053U 14034A   26159.82589715  .00000483  00000+0  10793-3 0  9999
2 40053  98.0627 222.5329 0001184  84.6254 275.5082 14.60951478635912
SKYSAT-B                
1 40072U 14037D   26159.78685444  .00001487  00000+0  16867-3 0  9997
2 40072  98.3833 118.2734 0004534 316.3605  43.7250 14.88007091644716
WORLDVIEW-3 (WV-3)      
1 40115U 14048A   26159.81216758  .00000813  00000+0  10157-3 0  9997
2 40115  97.8566 234.7606 0001624  38.7333 321.3998 14.85008490640668
GAOFEN-2                
1 40118U 14049A   26159.86550553  .00000525  00000+0  74904-4 0  9991
2 40118  98.0107 224.0805 0005890 260.1015  99.9532 14.80889312638007
YAOGAN-21               
1 40143U 14053A   26159.83652987  .00005914  00000+0  23068-3 0  9996
2 40143  97.1482 200.4311 0009788 117.4610 242.7625 15.26249268653689
ASNARO                  
1 40298U 14070A   26159.86109451  .00007183  00000+0  34317-3 0  9991
2 40298  97.3447 236.2014 0004754 191.6873 168.4252 15.19311500642749
YAOGAN-24               
1 40310U 14072A   26159.88053270  .00000877  00000+0  13426-3 0  9998
2 40310  98.1480 297.1491 0012682 293.3014  66.6860 14.76213198622491
CBERS 4                 
1 40336U 14079A   26159.88207898  .00000045  00000+0  30255-4 0  9997
2 40336  98.3531 216.9740 0002026  70.9627 289.1778 14.35506732602766
YAOGAN-26               
1 40362U 14088A   26159.85502803  .00014429  00000+0  28711-3 0  9991
2 40362  97.0649 160.2610 0006595  86.7056 273.4949 15.47005995636418
SMAP                    
1 40376U 15003A   26159.80633505  .00000482  00000+0  10231-3 0  9995
2 40376  98.1276 167.0196 0001272  93.0143 267.1204 14.63359608606398
KOMPSAT-3A              
1 40536U 15014A   26159.86978816  .00024225  00000+0  35625-3 0  9993
2 40536  97.6888 150.6264 0055745 204.7318 155.1261 15.53614035620520
SENTINEL-2A             
1 40697U 15028A   26159.82307389  .00000161  00000+0  78244-4 0  9991
2 40697  98.5678 234.7934 0001078  87.4874 272.6432 14.30821531572533
GAOFEN-8                
1 40701U 15030A   26159.86662777  .00021646  00000+0  44982-3 0  9991
2 40701  97.6916 352.7405 0008004 217.7654 142.3034 15.45655554610168
CARBONITE 1 (CBNT-1)    
1 40718U 15032D   26159.81918977  .00001478  00000+0  18531-3 0  9994
2 40718  97.6511 338.2369 0013825 327.8561  32.1810 14.83562483588107
YAOGAN-27               
1 40878U 15040A   26159.89433093 -.00000574  00000+0 -13999-2 0  9999
2 40878 100.1154 146.6371 0007505 231.2337 128.8107 13.16067419516576
GAOFEN-9 01             
1 40894U 15047A   26159.83023883  .00001052  00000+0  13526-3 0  9997
2 40894  97.6283 195.9045 0027757 164.4733 195.7339 14.82868530578957
YAOGAN-28               
1 41026U 15064A   26159.87140770  .00007208  00000+0  27178-3 0  9990
2 41026  97.3063 298.3041 0009879 213.4230 146.6387 15.27312590589415
YAOGAN-29               
1 41038U 15069A   26159.87922094 -.00000113  00000+0 -71991-5 0  9999
2 41038  98.0033 188.4989 0002920  66.8116 293.3404 14.83076526569398
KENT RIDGE 1            
1 41167U 15077B   26159.12626532  .00004648  00000+0  15976-3 0  9991
2 41167  14.9808 333.3719 0008250 110.5670 249.5537 15.23078072579714
GAOFEN-4                
1 41194U 15083A   26159.59771124 -.00000319  00000+0  00000+0 0  9997
2 41194   0.3341  83.8441 0004165 111.8448  22.1741  1.00273550 38442
JASON-3                 
1 41240U 16002A   26159.76962650 -.00000036  00000+0  10272-3 0  9998
2 41240  66.0392 143.5321 0008590 273.1049  86.8987 12.87627827486167
SENTINEL-3A             
1 41335U 16011A   26159.80098066  .00000104  00000+0  60883-4 0  9998
2 41335  98.6250 227.3047 0001349 104.4446 255.6884 14.26737760536862
ZIYUAN 3-02 (ZY 3-02)   
1 41556U 16033A   26159.83701311  .00005584  00000+0  25152-3 0  9990
2 41556  97.3835 235.7709 0011603 323.0631  36.9805 15.21402253556710
CARTOSAT-2C             
1 41599U 16040A   26159.89343544  .00003762  00000+0  18153-3 0  9990
2 41599  97.4485 219.9853 0009890 157.4344 202.7327 15.19251827552453
SKYSAT-C1               
1 41601U 16040C   26159.03199683  .00009867  00000+0  28217-3 0  9997
2 41601  96.9568 191.2490 0004148  75.7609 284.4097 15.36146761556464
LAPAN-A3                
1 41603U 16040E   26159.83652220  .00003565  00000+0  11379-3 0  9998
2 41603  97.1488 156.2570 0011755  52.7905 307.4409 15.33052724553536
GAOFEN-3                
1 41727U 16049A   26159.89736685 -.00000037  00000+0  20309-5 0  9995
2 41727  98.4017 167.8086 0001236 100.0528 260.0802 14.42214094517457
