OBJECT_NAME,OBJECT_ID,EPOCH,MEAN_MOTION,ECCENTRICITY,INCLINATION,RA_OF_ASC_NODE,ARG_OF_PERICENTER,MEAN_ANOMALY,EPHEMERIS_TYPE,CLASSIFICATION_TYPE,NORAD_CAT_ID,ELEMENT_SET_NO,REV_AT_EPOCH,BSTAR,MEAN_MOTION_DOT,MEAN_MOTION_DDOT
HODOYOSHI-4,2014-033B,2026-06-08T19:56:16.016352,14.88109976,.0023246,97.5459,345.0572,337.2736,22.7450,0,U,40011,999,64756,.11963E-3,.1053E-4,0
DEIMOS-2,2014-033D,2026-06-08T19:25:45.545952,14.93706728,.0002063,97.5838,34.5922,60.1798,299.9627,0,U,40013,999,63647,.22071E-3,.2281E-4,0
HODOYOSHI-3,2014-033F,2026-06-08T10:15:52.288992,14.85370955,.0033464,97.6412,322.8215,25.9244,334.3640,0,U,40015,999,64632,.13864E-3,.1152E-4,0
SPOT 7,2014-034A,2026-06-08T19:49:17.513760,14.60951478,.0001184,98.0627,222.5329,84.6254,275.5082,0,U,40053,999,63591,.10793E-3,.483E-5,0
SKYSAT-B,2014-037D,2026-06-08T18:53:04.223616,14.88007091,.0004534,98.3833,118.2734,316.3605,43.7250,0,U,40072,999,64471,.16867E-3,.1487E-4,0
WORLDVIEW-3 (WV-3),2014-048A,2026-06-08T19:29:31.278912,14.85008490,.0001624,97.8566,234.7606,38.7333,321.3998,0,U,40115,999,64066,.10157E-3,.813E-5,0
GAOFEN-2,2014-049A,2026-06-08T20:46:19.677792,14.80889312,.000589,98.0107,224.0805,260.1015,99.9532,0,U,40118,999,63800,.74904E-4,.525E-5,0
YAOGAN-21,2014-053A,2026-06-08T20:04:36.180768,15.26249268,.0009788,97.1482,200.4311,117.4610,242.7625,0,U,40143,999,65368,.23068E-3,.5914E-4,0
ASNARO,2014-070A,2026-06-08T20:39:58.565664,15.19311500,.0004754,97.3447,236.2014,191.6873,168.4252,0,U,40298,999,64274,.34317E-3,.7183E-4,0
YAOGAN-24,2014-072A,2026-06-08T21:07:58.025280,14.76213198,.0012682,98.1480,297.1491,293.3014,66.6860,0,U,40310,999,62249,.13426E-3,.877E-5,0
CBERS 4,2014-079A,2026-06-08T21:10:11.623872,14.35506732,.0002026,98.3531,216.9740,70.9627,289.1778,0,U,40336,999,60276,.30255E-4,.45E-6,0
YAOGAN-26,2014-088A,2026-06-08T20:31:14.421792,15.47005995,.0006595,97.0649,160.2610,86.7056,273.4949,0,U,40362,999,63641,.28711E-3,.14429E-3,0
SMAP,2015-003A,2026-06-08T19:21:07.348320,14.63359608,.0001272,98.1276,167.0196,93.0143,267.1204,0,U,40376,999,60639,.10231E-3,.482E-5,0
KOMPSAT-3A,2015-014A,2026-06-08T20:52:29.697024,15.53614035,.0055745,97.6888,150.6264,204.7318,155.1261,0,U,40536,999,62052,.35625E-3,.24225E-3,0
SENTINEL-2A,2015-028A,2026-06-08T19:45:13.584096,14.30821531,.0001078,98.5678,234.7934,87.4874,272.6432,0,U,40697,999,57253,.78244E-4,.161E-5,0
GAOFEN-8,2015-030A,2026-06-08T20:47:56.639328,15.45655554,.0008004,97.6916,352.7405,217.7654,142.3034,0,U,40701,999,61016,.44982E-3,.21646E-3,0
CARBONITE 1 (CBNT-1),2015-032D,2026-06-08T19:39:37.996128,14.83562483,.0013825,97.6511,338.2369,327.8561,32.1810,0,U,40718,999,58810,.18531E-3,.1478E-4,0
YAOGAN-27,2015-040A,2026-06-08T21:27:50.192352,13.16067419,.0007505,100.1154,146.6371,231.2337,128.8107,0,U,40878,999,51657,-.13999E-2,-.574E-5,0
GAOFEN-9 01,2015-047A,2026-06-08T19:55:32.634912,14.82868530,.0027757,97.6283,195.9045,164.4733,195.7339,0,U,40894,999,57895,.13526E-3,.1052E-4,0
YAOGAN-28,2015-064A,2026-06-08T20:54:49.625280,15.27312590,.0009879,97.3063,298.3041,213.4230,146.6387,0,U,41026,999,58941,.27178E-3,.7208E-4,0
YAOGAN-29,2015-069A,2026-06-08T21:06:04.689216,14.83076526,.000292,98.0033,188.4989,66.8116,293.3404,0,U,41038,999,56939,-.71991E-5,-.113E-5,0
KENT RIDGE 1,2015-077B,2026-06-08T03:01:49.323648,15.23078072,.00082508,14.9808,333.3719,110.5670,249.5537,0,U,41167,999,57971,.15975572E-3,.4648E-4,0
GAOFEN-4,2015-083A,2026-06-08T14:20:42.250272,1.00273550,.0004166,0.3341,83.8441,111.8448,22.1741,0,U,41194,999,3844,0,-.319E-5,0
JASON-3,2016-002A,2026-06-08T18:28:15.729600,12.87627827,.000859,66.0392,143.5321,273.1049,86.8987,0,U,41240,999,48616,.10272E-3,-.36E-6,0
SENTINEL-3A,2016-011A,2026-06-08T19:13:24.729024,14.26737760,.0001349,98.6250,227.3047,104.4446,255.6884,0,U,41335,999,53686,.60883E-4,.104E-5,0
ZIYUAN 3-02 (ZY 3-02),2016-033A,2026-06-08T20:05:17.932704,15.21402253,.0011603,97.3835,235.7709,323.0631,36.9805,0,U,41556,999,55671,.25152E-3,.5584E-4,0
CARTOSAT-2C,2016-040A,2026-06-08T21:26:32.822016,15.19251827,.000989,97.4485,219.9853,157.4344,202.7327,0,U,41599,999,55245,.18153E-3,.3762E-4,0
SKYSAT-C1,2016-040C,2026-06-08T00:46:04.526112,15.36146761,.00041489,96.9568,191.2490,75.7609,284.4097,0,U,41601,999,55646,.28216962E-3,.9867E-4,0
LAPAN-A3,2016-040E,2026-06-08T20:04:35.518080,15.33052724,.0011755,97.1488,156.2570,52.7905,307.4409,0,U,41603,999,55353,.11379E-3,.3565E-4,0
GAOFEN-3,2016-049A,2026-06-08T21:32:12.495840,14.42214094,.0001236,98.4017,167.8086,100.0528,260.0802,0,U,41727,999,51745,.20309E-5,-.37E-6,0
